{"type": "FeatureCollection", "features": [ {"type": "Feature", "properties": {"norad_id": 39634, "name": "SENTINEL-1A", "group": "resource", "lat": 71.93410891866104, "lon": -25.882729208772222, "alt_km": 687.9334390110898, "timestamp": "2025-12-21T03:56:50.511618+00:00", "meta": {"OBJECT_NAME": "SENTINEL-1A", "OBJECT_ID": "2014-016A", "EPOCH": "2025-12-20T21:01:38.741376", "MEAN_MOTION": 14.59200275, "ECCENTRICITY": 0.0001279, "INCLINATION": 98.1795, "RA_OF_ASC_NODE": 359.9973, "ARG_OF_PERICENTER": 86.2996, "MEAN_ANOMALY": 273.835, "EPHEMERIS_TYPE": 0, "CLASSIFICATION_TYPE": "U", "NORAD_CAT_ID": 39634, "ELEMENT_SET_NO": 999, "REV_AT_EPOCH": 62401, "BSTAR": 9.5496e-06, "MEAN_MOTION_DOT": -1e-08, "MEAN_MOTION_DDOT": 0}, "tle": {"line1": "1 39634U 14016A   25354.87614284 -.00000001  00000+0  95496-5 0  9995", "line2": "2 39634  98.1795 359.9973 0001279  86.2996 273.8350 14.59200275624016"}}, "geometry": {"type": "Point", "coordinates": [-25.882729208772222, 71.93410891866104]}}, {"type": "Feature", "properties": {"norad_id": 39731, "name": "KAZEOSAT 1", "group": "resource", "lat": -67.98837004562124, "lon": -134.40187038323995, "alt_km": 759.6761778132113, "timestamp": "2025-12-21T03:56:50.511627+00:00", "meta": {"OBJECT_NAME": "KAZEOSAT 1", "OBJECT_ID": "2014-024A", "EPOCH": "2025-12-20T20:07:58.236672", "MEAN_MOTION": 14.42066082, "ECCENTRICITY": 0.0001179, "INCLINATION": 98.3432, "RA_OF_ASC_NODE": 66.5648, "ARG_OF_PERICENTER": 97.1952, "MEAN_ANOMALY": 262.9372, "EPHEMERIS_TYPE": 0, "CLASSIFICATION_TYPE": "U", "NORAD_CAT_ID": 39731, "ELEMENT_SET_NO": 999, "REV_AT_EPOCH": 61285, "BSTAR": 6.3351e-06, "MEAN_MOTION_DOT": -2.2e-07, "MEAN_MOTION_DDOT": 0}, "tle": {"line1": "1 39731U 14024A   25354.83886848 -.00000022  00000+0  63351-5 0  9993", "line2": "2 39731  98.3432  66.5648 0001179  97.1952 262.9372 14.42066082612856"}}, "geometry": {"type": "Point", "coordinates": [-134.40187038323995, -67.98837004562124]}}, {"type": "Feature", "properties": {"norad_id": 39766, "name": "ALOS-2", "group": "resource", "lat": -6.240654434907918, "lon": -90.98171060296674, "alt_km": 634.8065428789678, "timestamp": "2025-12-21T03:56:50.511637+00:00", "meta": {"OBJECT_NAME": "ALOS-2", "OBJECT_ID": "2014-029A", "EPOCH": "2025-12-20T20:36:57.067776", "MEAN_MOTION": 14.7947194, "ECCENTRICITY": 0.0001413, "INCLINATION": 97.9232, "RA_OF_ASC_NODE": 89.5898, "ARG_OF_PERICENTER": 95.8837, "MEAN_ANOMALY": 264.2536, "EPHEMERIS_TYPE": 0, "CLASSIFICATION_TYPE": "U", "NORAD_CAT_ID": 39766, "ELEMENT_SET_NO": 999, "REV_AT_EPOCH": 62521, "BSTAR": 0.0002303, "MEAN_MOTION_DOT": 1.669e-05, "MEAN_MOTION_DDOT": 0}, "tle": {"line1": "1 39766U 14029A   25354.85899384  .00001669  00000+0  23030-3 0  9992", "line2": "2 39766  97.9232  89.5898 0001413  95.8837 264.2536 14.79471940625211"}}, "geometry": {"type": "Point", "coordinates": [-90.98171060296674, -6.240654434907918]}}, {"type": "Feature", "properties": {"norad_id": 40010, "name": "KAZEOSAT 2", "group": "resource", "lat": -82.3749593292827, "lon": -63.12505597813604, "alt_km": 620.5353995783571, "timestamp": "2025-12-21T03:56:50.511646+00:00", "meta": {"OBJECT_NAME": "KAZEOSAT 2", "OBJECT_ID": "2014-033A", "EPOCH": "2025-12-20T20:16:20.746848", "MEAN_MOTION": 14.85178596, "ECCENTRICITY": 0.0008338, "INCLINATION": 97.5497, "RA_OF_ASC_NODE": 198.7403, "ARG_OF_PERICENTER": 178.569, "MEAN_ANOMALY": 181.5551, "EPHEMERIS_TYPE": 0, "CLASSIFICATION_TYPE": "U", "NORAD_CAT_ID": 40010, "ELEMENT_SET_NO": 999, "REV_AT_EPOCH": 62248, "BSTAR": 3.2901e-05, "MEAN_MOTION_DOT": 2.32e-06, "MEAN_MOTION_DDOT": 0}, "tle": {"line1": "1 40010U 14033A   25354.84468457  .00000232  00000+0  32901-4 0  9996", "line2": "2 40010  97.5497 198.7403 0008338 178.5690 181.5551 14.85178596622480"}}, "geometry": {"type": "Point", "coordinates": [-63.12505597813604, -82.3749593292827]}}, {"type": "Feature", "properties": {"norad_id": 40011, "name": "HODOYOSHI-4", "group": "resource", "lat": 65.51921125381419, "lon": 166.71932084951675, "alt_km": 603.7842029035482, "timestamp": "2025-12-21T03:56:50.511656+00:00", "meta": {"OBJECT_NAME": "HODOYOSHI-4", "OBJECT_ID": "2014-033B", "EPOCH": "2025-12-20T19:34:32.332800", "MEAN_MOTION": 14.87509137, "ECCENTRICITY": 0.0023798, "INCLINATION": 97.5405, "RA_OF_ASC_NODE": 183.3008, "ARG_OF_PERICENTER": 173.4675, "MEAN_ANOMALY": 186.6857, "EPHEMERIS_TYPE": 0, "CLASSIFICATION_TYPE": "U", "NORAD_CAT_ID": 40011, "ELEMENT_SET_NO": 999, "REV_AT_EPOCH": 62228, "BSTAR": 0.00020346, "MEAN_MOTION_DOT": 1.802e-05, "MEAN_MOTION_DDOT": 0}, "tle": {"line1": "1 40011U 14033B   25354.81565200  .00001802  00000+0  20346-3 0  9991", "line2": "2 40011  97.5405 183.3008 0023798 173.4675 186.6857 14.87509137622289"}}, "geometry": {"type": "Point", "coordinates": [166.71932084951675, 65.51921125381419]}}, {"type": "Feature", "properties": {"norad_id": 40013, "name": "DEIMOS-2", "group": "resource", "lat": 30.203720559009074, "lon": -133.77504516712074, "alt_km": 586.7223172229669, "timestamp": "2025-12-21T03:56:50.511665+00:00", "meta": {"OBJECT_NAME": "DEIMOS-2", "OBJECT_ID": "2014-033D", "EPOCH": "2025-12-20T19:46:07.465728", "MEAN_MOTION": 14.93008969, "ECCENTRICITY": 0.000151, "INCLINATION": 97.6069, "RA_OF_ASC_NODE": 230.3572, "ARG_OF_PERICENTER": 104.1616, "MEAN_ANOMALY": 255.9772, "EPHEMERIS_TYPE": 0, "CLASSIFICATION_TYPE": "U", "NORAD_CAT_ID": 40013, "ELEMENT_SET_NO": 999, "REV_AT_EPOCH": 61110, "BSTAR": 0.00023419, "MEAN_MOTION_DOT": 2.38e-05, "MEAN_MOTION_DDOT": 0}, "tle": {"line1": "1 40013U 14033D   25354.82369752  .00002380  00000+0  23419-3 0  9994", "line2": "2 40013  97.6069 230.3572 0001510 104.1616 255.9772 14.93008969611100"}}, "geometry": {"type": "Point", "coordinates": [-133.77504516712074, 30.203720559009074]}}, {"type": "Feature", "properties": {"norad_id": 40015, "name": "HODOYOSHI-3", "group": "resource", "lat": -82.20131426505324, "lon": -121.537405762124, "alt_km": 607.653345479167, "timestamp": "2025-12-21T03:56:50.511675+00:00", "meta": {"OBJECT_NAME": "HODOYOSHI-3", "OBJECT_ID": "2014-033F", "EPOCH": "2025-12-20T10:33:15.533568", "MEAN_MOTION": 14.84830501, "ECCENTRICITY": 0.0032237, "INCLINATION": 97.6204, "RA_OF_ASC_NODE": 159.9401, "ARG_OF_PERICENTER": 221.7025, "MEAN_ANOMALY": 138.1732, "EPHEMERIS_TYPE": 0, "CLASSIFICATION_TYPE": "U", "NORAD_CAT_ID": 40015, "ELEMENT_SET_NO": 999, "REV_AT_EPOCH": 62109, "BSTAR": 0.00014195012, "MEAN_MOTION_DOT": 1.164e-05, "MEAN_MOTION_DDOT": 0}, "tle": {"line1": "1 40015U 14033F   25354.43976312  .00001164  00000+0  14195-3 0  9999", "line2": "2 40015  97.6204 159.9401 0032237 221.7025 138.1732 14.84830501621092"}}, "geometry": {"type": "Point", "coordinates": [-121.537405762124, -82.20131426505324]}}, {"type": "Feature", "properties": {"norad_id": 40053, "name": "SPOT 7", "group": "resource", "lat": -14.908661327966902, "lon": 59.216365104722875, "alt_km": 695.66009050299, "timestamp": "2025-12-21T03:56:50.511684+00:00", "meta": {"OBJECT_NAME": "SPOT 7", "OBJECT_ID": "2014-034A", "EPOCH": "2025-12-20T19:47:46.538016", "MEAN_MOTION": 14.60742799, "ECCENTRICITY": 0.0001566, "INCLINATION": 98.0901, "RA_OF_ASC_NODE": 56.7143, "ARG_OF_PERICENTER": 85.2479, "MEAN_ANOMALY": 274.89, "EPHEMERIS_TYPE": 0, "CLASSIFICATION_TYPE": "U", "NORAD_CAT_ID": 40053, "ELEMENT_SET_NO": 999, "REV_AT_EPOCH": 61109, "BSTAR": 6.4507e-05, "MEAN_MOTION_DOT": 2.69e-06, "MEAN_MOTION_DDOT": 0}, "tle": {"line1": "1 40053U 14034A   25354.82484419  .00000269  00000+0  64507-4 0  9995", "line2": "2 40053  98.0901  56.7143 0001566  85.2479 274.8900 14.60742799611096"}}, "geometry": {"type": "Point", "coordinates": [59.216365104722875, -14.908661327966902]}}, {"type": "Feature", "properties": {"norad_id": 40072, "name": "SKYSAT-B", "group": "resource", "lat": 5.734683088035199, "lon": -61.530600268228945, "alt_km": 610.7981134653337, "timestamp": "2025-12-21T03:56:50.511694+00:00", "meta": {"OBJECT_NAME": "SKYSAT-B", "OBJECT_ID": "2014-037D", "EPOCH": "2025-12-20T19:50:54.393216", "MEAN_MOTION": 14.87352902, "ECCENTRICITY": 0.0006644, "INCLINATION": 98.3623, "RA_OF_ASC_NODE": 298.9605, "ARG_OF_PERICENTER": 127.4898, "MEAN_ANOMALY": 232.6921, "EPHEMERIS_TYPE": 0, "CLASSIFICATION_TYPE": "U", "NORAD_CAT_ID": 40072, "ELEMENT_SET_NO": 999, "REV_AT_EPOCH": 61944, "BSTAR": 0.00012991, "MEAN_MOTION_DOT": 1.113e-05, "MEAN_MOTION_DDOT": 0}, "tle": {"line1": "1 40072U 14037D   25354.82701844  .00001113  00000+0  12991-3 0  9991", "line2": "2 40072  98.3623 298.9605 0006644 127.4898 232.6921 14.87352902619444"}}, "geometry": {"type": "Point", "coordinates": [-61.530600268228945, 5.734683088035199]}}, {"type": "Feature", "properties": {"norad_id": 40115, "name": "WORLDVIEW-3 (WV-3)", "group": "resource", "lat": -11.126675027137185, "lon": -114.2194425714932, "alt_km": 618.2881850490285, "timestamp": "2025-12-21T03:56:50.511703+00:00", "meta": {"OBJECT_NAME": "WORLDVIEW-3 (WV-3)", "OBJECT_ID": "2014-048A", "EPOCH": "2025-12-20T19:00:06.414624", "MEAN_MOTION": 14.84664274, "ECCENTRICITY": 0.0001816, "INCLINATION": 97.877, "RA_OF_ASC_NODE": 66.9726, "ARG_OF_PERICENTER": 136.0463, "MEAN_ANOMALY": 224.0896, "EPHEMERIS_TYPE": 0, "CLASSIFICATION_TYPE": "U", "NORAD_CAT_ID": 40115, "ELEMENT_SET_NO": 999, "REV_AT_EPOCH": 61543, "BSTAR": 9.0899e-05, "MEAN_MOTION_DOT": 7.15e-06, "MEAN_MOTION_DDOT": 0}, "tle": {"line1": "1 40115U 14048A   25354.79174091  .00000715  00000+0  90899-4 0  9996", "line2": "2 40115  97.8770  66.9726 0001816 136.0463 224.0896 14.84664274615432"}}, "geometry": {"type": "Point", "coordinates": [-114.2194425714932, -11.126675027137185]}}]}